[{"OBJECT_NAME":"YUNHAI-2 02E","OBJECT_ID":"2024-052E","EPOCH":"2026-03-09T23:04:08.218272","MEAN_MOTION":14.27923834,"ECCENTRICITY":0.00117453,"INCLINATION":50.0117,"RA_OF_ASC_NODE":23.2487,"ARG_OF_PERICENTER":69.3739,"MEAN_ANOMALY":290.8434,"EPHEMERIS_TYPE":0,"CLASSIFICATION_TYPE":"U","NORAD_CAT_ID":59284,"ELEMENT_SET_NO":999,"REV_AT_EPOCH":9275,"BSTAR":0.0001398659,"MEAN_MOTION_DOT":1.88e-6,"MEAN_MOTION_DDOT":0},{"OBJECT_NAME":"CZ-6A DEB","OBJECT_ID":"2024-140CK","EPOCH":"2026-03-09T00:52:53.167008","MEAN_MOTION":14.24618755,"ECCENTRICITY":0.00288383,"INCLINATION":89.0029,"RA_OF_ASC_NODE":285.9751,"ARG_OF_PERICENTER":159.752,"MEAN_ANOMALY":200.4824,"EPHEMERIS_TYPE":0,"CLASSIFICATION_TYPE":"U","NORAD_CAT_ID":60682,"ELEMENT_SET_NO":999,"REV_AT_EPOCH":8210,"BSTAR":0.00020812146,"MEAN_MOTION_DOT":5.0e-6,"MEAN_MOTION_DDOT":0}]
